{
  "name": "SATGUS",
  "line1": "1 62713U 25009DJ  25357.21561116  .00008042  00000+0  67846-3 0  9997",
  "line2": "2 62713  97.7200  75.2333 0001791   9.4165 350.7091 14.98408922 51189",
  "fetched_at": "2025-12-24T00:19:30.459158+00:00"
}